NORAD_CAT_ID,OBJECT_NAME,OBJECT_TYPE,EPOCH,MEAN_MOTION,ECCENTRICITY,INCLINATION,RA_OF_ASC_NODE,ARG_OF_PERICENTER,MEAN_ANOMALY,BSTAR,MEAN_MOTION_DOT,MEAN_MOTION_DDOT,TLE_LINE0,TLE_LINE1,TLE_LINE2,SEMIMAJOR_AXIS,PERIOD,APOGEE,PERIGEE,DECAYED
52494.0,STARLINK-3857,PAYLOAD,2023-03-24 15:20:08,15.08892656,0.0001305,53.2149,222.1462,80.8262,279.2878,0.0023148,0.00036798,0.0,0 STARLINK-3857,1 52494U 22049AV  23083.63898341  .00036798  00000-0  23148-2 0  9992,2 52494  53.2149 222.1462 0001305  80.8262 279.2878 15.08892656 49358,6917.719,95.434,540.487,538.682,0.0
52494.0,STARLINK-3857,PAYLOAD,2023-03-25 02:27:49,15.0886458,0.000119,53.2142,220.0664,90.8016,269.3113,0.00056567,8.732e-05,0.0,0 STARLINK-3857,1 52494U 22049AV  23084.10265869  .00008732  00000-0  56567-3 0  9997,2 52494  53.2142 220.0664 0001190  90.8016 269.3113 15.08864580 49427,6917.805,95.436,540.493,538.847,0.0
52494.0,STARLINK-3857,PAYLOAD,2023-03-25 08:49:22,15.08831906,0.0002091,53.2144,218.8783,91.1347,268.9885,-0.00077557,-0.00012608,0.0,0 STARLINK-3857,1 52494U 22049AV  23084.36762631 -.00012608  00000-0 -77557-3 0  9995,2 52494  53.2144 218.8783 0002091  91.1347 268.9885 15.08831906 49469,6917.905,95.438,541.217,538.324,0.0
52494.0,STARLINK-3857,PAYLOAD,2023-03-25 19:57:05,15.0882677,0.0001336,53.2157,216.7913,117.8216,242.2911,0.00026827,3.983e-05,0.0,0 STARLINK-3857,1 52494U 22049AV  23084.83131155  .00003983  00000-0  26827-3 0  9996,2 52494  53.2157 216.7913 0001336 117.8216 242.2911 15.08826770 49375,6917.921,95.438,540.71,538.862,0.0
52494.0,STARLINK-3857,PAYLOAD,2023-03-26 11:50:57,15.08819905,0.0001551,53.2163,213.8175,118.6021,241.5127,0.00043888,6.7e-05,0.0,0 STARLINK-3857,1 52494U 22049AV  23085.49372465  .00006700  00000-0  43888-3 0  9996,2 52494  53.2163 213.8175 0001551 118.6021 241.5127 15.08819905 49634,6917.942,95.439,540.88,538.734,0.0
52494.0,STARLINK-3857,PAYLOAD,2023-03-26 19:47:53,15.08839728,0.0001575,53.216,212.3294,121.3076,238.807,0.00052672,8.105e-05,0.0,0 STARLINK-3857,1 52494U 22049AV  23085.82492045  .00008105  00000-0  52672-3 0  9992,2 52494  53.2160 212.3294 0001575 121.3076 238.8070 15.08839728 49523,6917.881,95.438,540.836,538.657,0.0
52494.0,STARLINK-3857,PAYLOAD,2023-03-27 13:17:08,15.08841004,0.0001485,53.2159,209.0645,87.5644,272.5518,0.00041243,6.282e-05,0.0,0 STARLINK-3857,1 52494U 22049AV  23086.55356528  .00006282  00000-0  41243-3 0  9994,2 52494  53.2159 209.0645 0001485  87.5644 272.5518 15.08841004 49799,6917.877,95.437,540.77,538.715,0.0
52494.0,STARLINK-3857,PAYLOAD,2023-03-27 18:03:16,15.08857598,0.0001416,53.2159,208.1712,98.6038,261.5115,0.00068102,0.00010572,0.0,0 STARLINK-3857,1 52494U 22049AV  23086.75227819  .00010572  00000-0  68102-3 0  9996,2 52494  53.2159 208.1712 0001416  98.6038 261.5115 15.08857598 49828,6917.827,95.436,540.671,538.712,0.0
52494.0,STARLINK-3857,PAYLOAD,2023-03-28 13:07:54,15.08847053,0.0001545,53.2157,204.6042,105.4775,254.6388,0.00016196,2.291e-05,0.0,0 STARLINK-3857,1 52494U 22049AV  23087.54716260  .00002291  00000-0  16196-3 0  9992,2 52494  53.2157 204.6042 0001545 105.4775 254.6388 15.08847053 49786,6917.859,95.437,540.793,538.655,0.0
52494.0,STARLINK-3857,PAYLOAD,2023-03-28 14:43:17,15.0885081,0.0001544,53.2154,204.3063,105.765,254.3512,0.00025347,3.749e-05,0.0,0 STARLINK-3857,1 52494U 22049AV  23087.61340124  .00003749  00000-0  25347-3 0  9999,2 52494  53.2154 204.3063 0001544 105.7650 254.3512 15.08850810 49957,6917.847,95.437,540.78,538.644,0.0
52494.0,STARLINK-3857,PAYLOAD,2023-03-28 17:54:03,15.08864419,0.000133,53.2149,203.7106,110.19,249.9235,0.00084057,0.00013124,0.0,0 STARLINK-3857,1 52494U 22049AV  23087.74587495  .00013124  00000-0  84057-3 0  9998,2 52494  53.2149 203.7106 0001330 110.1900 249.9235 15.08864419 49810,6917.806,95.436,540.591,538.751,0.0
52494.0,STARLINK-3857,PAYLOAD,2023-03-29 00:15:36,15.08838024,0.0001604,53.2159,202.5219,101.0407,259.0765,-6.8485e-06,-3.97e-06,0.0,0 STARLINK-3857,1 52494U 22049AV  23088.01084085 -.00000397  00000-0 -68485-5 0  9995,2 52494  53.2159 202.5219 0001604 101.0407 259.0765 15.08838024 50015,6917.886,95.438,540.861,538.642,0.0
52494.0,STARLINK-3857,PAYLOAD,2023-03-29 12:58:42,15.08831076,0.0001709,53.2175,200.1455,117.8366,242.28,7.6346e-05,9.27e-06,0.0,0 STARLINK-3857,1 52494U 22049AV  23088.54076443  .00000927  00000-0  76346-4 0  9993,2 52494  53.2175 200.1455 0001709 117.8366 242.2800 15.08831076 49937,6917.908,95.438,540.955,538.59,0.0
52494.0,STARLINK-3857,PAYLOAD,2023-03-29 17:44:51,15.08846755,0.000126,53.2158,199.2502,105.4474,254.6657,0.00035363,5.346e-05,0.0,0 STARLINK-3857,1 52494U 22049AV  23088.73948057  .00005346  00000-0  35363-3 0  9996,2 52494  53.2158 199.2502 0001260 105.4474 254.6657 15.08846755 49964,6917.86,95.437,540.596,538.853,0.0
52494.0,STARLINK-3857,PAYLOAD,2023-03-30 11:14:06,15.08839169,0.0001256,53.2165,195.9809,94.8102,265.3033,0.0001495,2.092e-05,0.0,0 STARLINK-3857,1 52494U 22049AV  23089.46812606  .00002092  00000-0  14950-3 0  9991,2 52494  53.2165 195.9809 0001256  94.8102 265.3033 15.08839169 50239,6917.883,95.438,540.617,538.879,0.0
52494.0,STARLINK-3857,PAYLOAD,2023-03-30 19:11:00,15.08867909,0.0001112,53.2144,194.4895,129.405,230.7041,0.0005939,9.184e-05,0.0,0 STARLINK-3857,1 52494U 22049AV  23089.79931147  .00009184  00000-0  59390-3 0  9995,2 52494  53.2144 194.4895 0001112 129.4050 230.7041 15.08867909 50286,6917.795,95.436,540.429,538.891,0.0
52494.0,STARLINK-3857,PAYLOAD,2023-03-31 06:18:43,15.08825119,9.34e-05,53.216,192.416,33.6629,326.4422,-0.00018731,-3.266e-05,0.0,0 STARLINK-3857,1 52494U 22049AV  23090.26300889 -.00003266  00000-0 -18731-3 0  9993,2 52494  53.2160 192.4160 0000934  33.6629 326.4422 15.08825119 50357,6917.926,95.438,540.437,539.145,0.0
52494.0,STARLINK-3857,PAYLOAD,2023-03-31 15:51:01,15.08863016,0.0001182,53.2147,190.6226,100.5627,259.5498,0.0005532,8.533e-05,0.0,0 STARLINK-3857,1 52494U 22049AV  23090.66043471  .00008533  00000-0  55320-3 0  9993,2 52494  53.2147 190.6226 0001182 100.5627 259.5498 15.08863016 50417,6917.81,95.436,540.493,538.857,0.0
52494.0,STARLINK-3857,PAYLOAD,2023-04-01 06:09:29,15.08848911,0.0001115,53.2144,187.9511,92.0793,268.0326,0.00016826,2.392e-05,0.0,0 STARLINK-3857,1 52494U 22049AV  23091.25659662  .00002392  00000-0  16826-3 0  9999,2 52494  53.2144 187.9511 0001115  92.0793 268.0326 15.08848911 50507,6917.853,95.437,540.489,538.947,0.0
52494.0,STARLINK-3857,PAYLOAD,2023-04-01 12:31:02,15.0884262,0.000154,53.2142,186.7608,101.8127,258.3038,-6.7747e-05,-1.366e-05,0.0,0 STARLINK-3857,1 52494U 22049AV  23091.52156097 -.00001366  00000-0 -67747-4 0  9994,2 52494  53.2142 186.7608 0001540 101.8127 258.3038 15.08842620 50380,6917.872,95.437,540.803,538.672,0.0
52494.0,STARLINK-3857,PAYLOAD,2023-04-01 15:41:48,15.08846246,0.0001604,53.2146,186.1658,95.252,264.8656,5.1473e-05,5.31e-06,0.0,0 STARLINK-3857,1 52494U 22049AV  23091.65403916  .00000531  00000-0  51473-4 0  9993,2 52494  53.2146 186.1658 0001604  95.2520 264.8656 15.08846246 50563,6917.861,95.437,540.836,538.617,0.0
52494.0,STARLINK-3857,PAYLOAD,2023-04-02 06:00:17,15.08837746,0.0001549,53.2132,183.4934,69.578,290.5378,0.00011306,1.512e-05,0.0,0 STARLINK-3857,1 52494U 22049AV  23092.25020517  .00001512  00000-0  11306-3 0  9992,2 52494  53.2132 183.4934 0001549  69.5780 290.5378 15.08837746 50657,6917.887,95.438,540.824,538.681,0.0
52494.0,STARLINK-3857,PAYLOAD,2023-04-02 12:21:50,15.08839635,0.0001438,53.2149,182.3016,86.3631,273.7525,9.4784e-05,1.221e-05,0.0,0 STARLINK-3857,1 52494U 22049AV  23092.51516468  .00001221  00000-0  94784-4 0  9995,2 52494  53.2149 182.3016 0001438  86.3631 273.7525 15.08839635 50536,6917.882,95.438,540.741,538.752,0.0
52494.0,STARLINK-3857,PAYLOAD,2023-04-02 17:07:59,15.08844834,0.0001332,53.2145,181.4084,92.7905,267.3239,0.00032443,4.88e-05,0.0,0 STARLINK-3857,1 52494U 22049AV  23092.71388318  .00004880  00000-0  32443-3 0  9995,2 52494  53.2145 181.4084 0001332  92.7905 267.3239 15.08844834 50566,6917.866,95.437,540.652,538.809,0.0
52494.0,STARLINK-3857,PAYLOAD,2023-04-02 23:29:33,15.08796781,0.000138,53.2149,180.2206,76.2049,283.9097,-0.00061188,-0.00010001,0.0,0 STARLINK-3857,1 52494U 22049AV  23092.97886384 -.00010001  00000-0 -61188-3 0  9991,2 52494  53.2149 180.2206 0001380  76.2049 283.9097 15.08796781 50767,6918.012,95.44,540.832,538.923,0.0
52494.0,STARLINK-3857,PAYLOAD,2023-04-03 10:37:16,15.08803063,0.0001428,53.217,178.1413,53.1684,306.9439,-0.00020752,-3.586e-05,0.0,0 STARLINK-3857,1 52494U 22049AV  23093.44255405 -.00003586  00000-0 -20752-3 0  9990,2 52494  53.2170 178.1413 0001428  53.1684 306.9439 15.08803063 50835,6917.993,95.44,540.846,538.87,0.0
52494.0,STARLINK-3857,PAYLOAD,2023-04-03 16:58:49,15.08811896,0.0001608,53.2152,176.9428,116.1658,243.95,0.00018994,2.734e-05,0.0,0 STARLINK-3857,1 52494U 22049AV  23093.70751475  .00002734  00000-0  18994-3 0  9994,2 52494  53.2152 176.9428 0001608 116.1658 243.9500 15.08811896 50717,6917.966,95.439,540.944,538.719,0.0
52494.0,STARLINK-3857,PAYLOAD,2023-04-04 12:03:26,15.08888718,0.0001184,53.2156,173.3801,73.8564,286.2559,0.0021622,0.00034337,0.0,0 STARLINK-3857,1 52494U 22049AV  23094.50238546  .00034337  00000-0  21622-2 0  9997,2 52494  53.2156 173.3801 0001184  73.8564 286.2559 15.08888718 50992,6917.731,95.434,540.416,538.777,0.0
52494.0,STARLINK-3857,PAYLOAD,2023-04-04 16:49:34,15.08901519,0.00012,53.2154,172.4878,71.9417,288.1705,0.0021138,0.0003357,0.0,0 STARLINK-3857,1 52494U 22049AV  23094.70109853  .00033570  00000-0  21138-2 0  9997,2 52494  53.2154 172.4878 0001200  71.9417 288.1705 15.08901519 50864,6917.692,95.434,540.387,538.727,0.0
52494.0,STARLINK-3857,PAYLOAD,2023-04-05 05:32:39,15.08866225,0.0001704,53.2161,170.1095,57.1178,302.9978,0.00095879,0.00015015,0.0,0 STARLINK-3857,1 52494U 22049AV  23095.23101813  .00015015  00000-0  95879-3 0  9992,2 52494  53.2161 170.1095 0001704  57.1178 302.9978 15.08866225 51106,6917.8,95.436,540.844,538.486,0.0
